NORAD_CAT_ID,OBJECT_NAME,OBJECT_TYPE,EPOCH,MEAN_MOTION,ECCENTRICITY,INCLINATION,RA_OF_ASC_NODE,ARG_OF_PERICENTER,MEAN_ANOMALY,BSTAR,MEAN_MOTION_DOT,MEAN_MOTION_DDOT,TLE_LINE0,TLE_LINE1,TLE_LINE2,SEMIMAJOR_AXIS,PERIOD,APOGEE,PERIGEE,DECAYED
52334.0,STARLINK-3880,PAYLOAD,2022-07-02 22:00:00,15.08841359,0.0002102,53.2158,130.5321,50.9842,342.466,-0.00013866,-2.495e-05,0.0,0 STARLINK-3880,1 52334U 22045D   22183.91667824 -.00002495  00000-0 -13866-3 0  9998,2 52334  53.2158 130.5321 0002102  50.9842 342.4660 15.08841359  1304,6917.876,95.437,541.195,538.2869999999998,0.0
52334.0,STARLINK-3880,PAYLOAD,2022-07-03 00:00:00,15.08849486,0.0002155,53.2157,130.1585,49.7288,76.6183,-0.0014863,-0.00023872,0.0,0 STARLINK-3880,1 52334U 22045D   22184.00001157 -.00023872  00000-0 -14863-2 0  9999,2 52334  53.2157 130.1585 0002155  49.7288  76.6183 15.08849486 12474,6917.851,95.437,541.207,538.226,0.0
52334.0,STARLINK-3880,PAYLOAD,2022-07-03 14:00:01,15.08845821,0.0002162,53.2158,127.5394,48.7857,7.8525,-0.00054148,-8.897e-05,0.0,0 STARLINK-3880,1 52334U 22045D   22184.58334491 -.00008897  00000-0 -54148-3 0  9993,2 52334  53.2158 127.5394 0002162  48.7857   7.8525 15.08845821  1307,6917.863,95.437,541.2230000000002,538.232,0.0
52334.0,STARLINK-3880,PAYLOAD,2022-07-03 22:00:00,15.08857677,0.0002167,53.216,126.0431,50.7163,17.5125,-0.0032204,-0.00051203,0.0,0 STARLINK-3880,1 52334U 22045D   22184.91667824 -.00051203  00000-0 -32204-2 0  9996,2 52334  53.2160 126.0431 0002167  50.7163  17.5125 15.08857677  1300,6917.826,95.436,541.19,538.192,0.0
52334.0,STARLINK-3880,PAYLOAD,2022-07-04 14:00:01,15.08823485,0.0002179,53.2162,123.0502,48.9065,42.493,3.1532e-05,2.13e-06,0.0,0 STARLINK-3880,1 52334U 22045D   22185.58334491  .00000213  00000-0  31532-4 0  9999,2 52334  53.2162 123.0502 0002179  48.9065  42.4930 15.08823485  1302,6917.931,95.439,541.303,538.288,0.0
52334.0,STARLINK-3880,PAYLOAD,2022-07-04 22:00:00,15.08851981,0.0002223,53.2163,121.554,51.4668,51.5129,-0.00084008,-0.00013638,0.0,0 STARLINK-3880,1 52334U 22045D   22185.91667824 -.00013638  00000-0 -84008-3 0  9997,2 52334  53.2163 121.5540 0002223  51.4668  51.5129 15.08851981  1309,6917.844,95.437,541.247,538.1709999999998,0.0
52334.0,STARLINK-3880,PAYLOAD,2022-07-05 14:00:01,15.08850956,0.0002202,53.2164,118.561,50.6993,75.4889,-0.00014198,-2.548e-05,0.0,0 STARLINK-3880,1 52334U 22045D   22186.58334491 -.00002548  00000-0 -14198-3 0  9993,2 52334  53.2164 118.5610 0002202  50.6993  75.4889 15.08850956  1302,6917.847,95.437,541.235,538.189,0.0
52334.0,STARLINK-3880,PAYLOAD,2022-07-05 22:00:00,15.08857083,0.000221,53.2166,117.0647,51.858,85.9315,-0.0024211,-0.00038633,0.0,0 STARLINK-3880,1 52334U 22045D   22186.91667824 -.00038633  00000-0 -24211-2 0  9999,2 52334  53.2166 117.0647 0002210  51.8580  85.9315 15.08857083 12919,6917.828,95.436,541.222,538.164,0.0
52334.0,STARLINK-3880,PAYLOAD,2022-07-06 14:00:01,15.0882654,0.0002156,53.2164,114.0716,51.4986,109.4801,0.0011406,0.00017905,0.0,0 STARLINK-3880,1 52334U 22045D   22187.58334491  .00017905  00000-0  11406-2 0  9993,2 52334  53.2164 114.0716 0002156  51.4986 109.4801 15.08826540 13014,6917.922,95.438,541.278,538.295,0.0
52334.0,STARLINK-3880,PAYLOAD,2022-07-06 19:38:56,15.08832768,0.000231,53.2181,113.0172,51.7502,308.3697,-1.7657e-05,-5.69e-06,0.0,0 STARLINK-3880,1 52334U 22045D   22187.81871148 -.00000569  00000-0 -17657-4 0  9990,2 52334  53.2181 113.0172 0002310  51.7502 308.3697 15.08832768 13053,6917.901999999999,95.438,541.366,538.169,0.0
52334.0,STARLINK-3880,PAYLOAD,2022-07-07 14:00:01,15.08852055,0.000211,53.2162,109.5821,53.6295,142.1586,-0.0011774,-0.00018984,0.0,0 STARLINK-3880,1 52334U 22045D   22188.58334491 -.00018984  00000-0 -11774-2 0  9992,2 52334  53.2162 109.5821 0002110  53.6295 142.1586 15.08852055  1308,6917.844,95.437,541.168,538.249,0.0
52334.0,STARLINK-3880,PAYLOAD,2022-07-07 22:00:00,15.0884796,0.0002121,53.2163,108.0865,54.0552,153.3331,-0.001454,-0.0002336,0.0,0 STARLINK-3880,1 52334U 22045D   22188.91667824 -.00023360  00000-0 -14540-2 0  9996,2 52334  53.2163 108.0865 0002121  54.0552 153.3331 15.08847960 13218,6917.856,95.437,541.188,538.254,0.0
52334.0,STARLINK-3880,PAYLOAD,2022-07-08 14:00:01,15.08854885,0.0002012,53.2159,105.0928,55.3361,175.2879,0.0031272,0.00049855,0.0,0 STARLINK-3880,1 52334U 22045D   22189.58334491  .00049855  00000-0  31272-2 0  9997,2 52334  53.2159 105.0928 0002012  55.3361 175.2879 15.08854885  1302,6917.835,95.437,541.092,538.308,0.0
52334.0,STARLINK-3880,PAYLOAD,2022-07-08 22:00:01,15.08897886,0.000201,53.216,103.5973,54.6405,187.6697,-0.0038331,-0.00060874,0.0,0 STARLINK-3880,1 52334U 22045D   22189.91668981 -.00060874  00000-0 -38331-2 0  9997,2 52334  53.2160 103.5973 0002010  54.6405 187.6697 15.08897886  1309,6917.703,95.434,540.9590000000002,538.178,0.0
52334.0,STARLINK-3880,PAYLOAD,2022-07-09 06:00:00,15.088401500000002,0.0001997,53.2156,102.1018,47.2045,206.6678,-0.0019463,-0.00031131,0.0,0 STARLINK-3880,1 52334U 22045D   22190.25001157 -.00031131  00000-0 -19463-2 0  9991,2 52334  53.2156 102.1018 0001997  47.2045 206.6678 15.08840150 13429,6917.88,95.438,541.126,538.363,0.0
52334.0,STARLINK-3880,PAYLOAD,2022-07-09 14:00:01,15.08774892,0.0001740999999999,53.2158,100.6035,48.978,216.4813,0.00025467,3.76e-05,0.0,0 STARLINK-3880,1 52334U 22045D   22190.58334491  .00003760  00000-0  25467-3 0  9994,2 52334  53.2158 100.6035 0001741  48.9780 216.4813 15.08774892  1307,6918.079000000002,95.442,541.149,538.74,0.0
52334.0,STARLINK-3880,PAYLOAD,2022-07-09 20:00:01,15.08786457,0.0001763,53.2161,99.4819,50.1276,133.9656,-0.00066884,-0.00010901,0.0,0 STARLINK-3880,1 52334U 22045D   22190.83334491 -.00010901  00000-0 -66884-3 0  9997,2 52334  53.2161  99.4819 0001763  50.1276 133.9656 15.08786457  1303,6918.044,95.441,541.129,538.689,0.0
52334.0,STARLINK-3880,PAYLOAD,2022-07-10 14:00:01,15.08793494,0.0001696,53.2161,96.1148,47.073,252.9802,0.0031199,0.00049652,0.0,0 STARLINK-3880,1 52334U 22045D   22191.58334491  .00049652  00000-0  31199-2 0  9993,2 52334  53.2161  96.1148 0001696  47.0730 252.9802 15.08793494 13629,6918.023,95.44,541.061,538.714,0.0
52334.0,STARLINK-3880,PAYLOAD,2022-07-10 22:00:00,15.08836311,0.0001836,53.2163,94.6196,46.8713,264.7383,-0.0012486,-0.00020103,0.0,0 STARLINK-3880,1 52334U 22045D   22191.91667824 -.00020103  00000-0 -12486-2 0  9999,2 52334  53.2163  94.6196 0001836  46.8713 264.7383 15.08836311  1304,6917.892,95.438,541.0269999999998,538.487,0.0
52334.0,STARLINK-3880,PAYLOAD,2022-07-11 06:00:00,15.08830122,0.0001918,53.2162,93.1239,42.5274,280.66700000000003,0.0013276,0.00020898,0.0,0 STARLINK-3880,1 52334U 22045D   22192.25001157  .00020898  00000-0  13276-2 0  9995,2 52334  53.2162  93.1239 0001918  42.5274 280.6670 15.08830122 13720,6917.911,95.438,541.102,538.4490000000002,0.0
52334.0,STARLINK-3880,PAYLOAD,2022-07-11 14:00:01,15.08815931,0.0001784,53.2166,91.6259,48.9273,285.8659,0.0034252,0.00054611,0.0,0 STARLINK-3880,1 52334U 22045D   22192.58334491  .00054611  00000-0  34252-2 0  9998,2 52334  53.2166  91.6259 0001784  48.9273 285.8659 15.08815931  1305,6917.954000000002,95.439,541.053,538.585,0.0
52334.0,STARLINK-3880,PAYLOAD,2022-07-11 22:00:00,15.08862753,0.0001934,53.2169,90.1309,47.5202,298.8615,-0.0011339,-0.000183,0.0,0 STARLINK-3880,1 52334U 22045D   22192.91667824 -.00018300  00000-0 -11339-2 0  9992,2 52334  53.2169  90.1309 0001934  47.5202 298.8615 15.08862753  1302,6917.811,95.436,541.014,538.3380000000002,0.0
52334.0,STARLINK-3880,PAYLOAD,2022-07-12 06:00:00,15.08870331,0.0001962,53.2168,88.6349,42.8015,315.1925,-0.0020474,-0.00032753,0.0,0 STARLINK-3880,1 52334U 22045D   22193.25001157 -.00032753  00000-0 -20474-2 0  9999,2 52334  53.2168  88.6349 0001962  42.8015 315.1925 15.08870331 13871,6917.788000000001,95.436,541.01,538.295,0.0
52334.0,STARLINK-3880,PAYLOAD,2022-07-12 14:00:01,15.08825466,0.0001749,53.2172,87.1369,48.2034,321.4284,0.0040062,0.00064025,0.0,0 STARLINK-3880,1 52334U 22045D   22193.58334491  .00064025  00000-0  40062-2 0  9995,2 52334  53.2172  87.1369 0001749  48.2034 321.4284 15.08825466  1308,6917.925,95.438,541.0,538.58,0.0
52334.0,STARLINK-3880,PAYLOAD,2022-07-12 22:00:00,15.08880515,0.000189,53.2174,85.6419,45.9816,335.2528,-0.0012854,-0.0002071,0.0,0 STARLINK-3880,1 52334U 22045D   22193.91667824 -.00020710  00000-0 -12854-2 0  9994,2 52334  53.2174  85.6419 0001890  45.9816 335.2528 15.08880515 13974,6917.757,95.435,540.929,538.314,0.0
52334.0,STARLINK-3880,PAYLOAD,2022-07-13 14:00:01,15.08818065,0.0001728,53.2174,82.6478,48.3441,356.1484,0.00058423,9.017e-05,0.0,0 STARLINK-3880,1 52334U 22045D   22194.58334491  .00009017  00000-0  58423-3 0  9997,2 52334  53.2174  82.6478 0001728  48.3441 356.1484 15.08818065  1305,6917.946999999999,95.439,541.008,538.617,0.0
52334.0,STARLINK-3880,PAYLOAD,2022-07-13 22:00:00,15.088209699999998,0.0001874,53.2175,81.153,45.3057,10.7524,-0.0010290999999999,-0.00016621,0.0,0 STARLINK-3880,1 52334U 22045D   22194.91667824 -.00016621  00000-0 -10291-2 0  9994,2 52334  53.2175  81.1530 0001874  45.3057  10.7524 15.08820970 14121,6917.939,95.439,541.1,538.507,0.0
52334.0,STARLINK-3880,PAYLOAD,2022-07-14 14:00:01,15.08806085,0.000171,53.2173,78.1589,49.6361,29.5683,0.0033208,0.0005291,0.0,0 STARLINK-3880,1 52334U 22045D   22195.58334491  .00052910  00000-0  33208-2 0  9991,2 52334  53.2173  78.1589 0001710  49.6361  29.5683 15.08806085 14229,6917.984,95.44,541.0319999999998,538.6659999999998,0.0
52334.0,STARLINK-3880,PAYLOAD,2022-07-14 22:00:00,15.08846145,0.0001871,53.2172,76.6641,46.8821,43.9003,-0.00090773,-0.00014708,0.0,0 STARLINK-3880,1 52334U 22045D   22195.91667824 -.00014708  00000-0 -90773-3 0  9993,2 52334  53.2172  76.6641 0001871  46.8821  43.9003 15.08846145  1300,6917.861999999999,95.437,541.021,538.432,0.0
